GLOBALSTAR M084         
1 38040U 11080A   25287.73751682 -.00000100  00000+0  22105-4 0  9993
2 38040  52.0026  44.5167 0000349 101.6808  46.2539 12.62269383637769
GLOBALSTAR M080         
1 38041U 11080B   25287.60037894 -.00000102  00000+0  10191-4 0  9996
2 38041  52.0076  46.5679 0001124  93.6300 280.0592 12.62269593637876
GLOBALSTAR M082         
1 38042U 11080C   25287.96695925 -.00000081  00000+0  12980-3 0  9994
2 38042  52.0106   0.9286 0000842 102.5108  68.4582 12.62263734638623
GLOBALSTAR M092         
1 38043U 11080D   25287.93989928 -.00000093  00000+0  60014-4 0  9996
2 38043  52.0066  91.3926 0000844  93.4820  73.4988 12.62266957637079
GLOBALSTAR M090         
1 38044U 11080E   25287.91424406 -.00000081  00000+0  12575-3 0  9995
2 38044  52.0149 354.9665 0000591 118.3430  52.1075 12.62262825638738
GLOBALSTAR M086         
1 38045U 11080F   25287.52937597 -.00000080  00000+0  13052-3 0  9993
2 38045  51.9925 356.4671 0000885 196.7701 270.0042 12.62278093638638
GLOBALSTAR M097         
1 39072U 13005A   25287.92931452 -.00000087  00000+0  91353-4 0  9999
2 39072  52.0043 269.9239 0000403  92.3981 267.6932 12.62266465585931
GLOBALSTAR M093         
1 39073U 13005B   25287.90330518 -.00000076  00000+0  15322-3 0  9993
2 39073  52.0095 263.2567 0000524 109.6338 250.4586 12.62265289585884
